#dP2023  5 26 18  0  0.00000000      96 __u+U ITR00 EXT  IAC
## 2263 496800.00000000   900.00000000 60090 0.7500000000000
+  118   C06C07C08C10C11C12C13C14C16C19C20C21C22C23C24C25C26
+        C27C28C29C30C32C33C34C35C36C37C38C39C40C41C42C43C44
+        C45C46E02E03E04E05E07E08E09E10E11E12E13E14E15E18E19
+        E21E24E25E26E27E30E31E33E34E36G01G02G03G04G05G06G07
+        G08G09G10G11G12G13G14G15G16G17G18G19G20G21G22G23G24
+        G25G26G27G28G29G30G31G32J02J03J04R01R02R03R04R05R07
+        R08R09R11R12R13R14R15R16R17R18R19R20R21R22R24R25  0
++        10  9 11 10  9  8 13  7 10  9  8  8  8  8  7  8  9
++         9  9 10  9  7  9  9  7  9  9 11 10  9  9  9  9  8
++         9  9  8  8  8  8  7  8  9  9  9  8  8  7  9  8  8
++         9  9  9  7 10  9  9  8  9  9  8  9  7  7  7  7  8
++         7  8  8  8  8  7 10  8  8  8  9  8  8  9  7  8  7
++         7  7  8  7  8  8  7  8 10 10  8  8  8  7  7  8  7
++         7  9  9  9 10  8  8  8  9  7  7  8  8  8  8  8  0
%c M  cc GPS ccc cccc cccc cccc cccc ccccc ccccc ccccc ccccc
%c cc cc ccc ccc cccc cccc cccc cccc ccccc ccccc ccccc ccccc
%f  0.0000000  0.000000000  0.00000000000  0.000000000000000
%f  0.0000000  0.000000000  0.00000000000  0.000000000000000
%i    0    0    0    0      0      0      0      0         0
%i    0    0    0    0      0      0      0      0         0
/* IAC                                ULTRA-RAPID PREDICTION
/* S/V CLOCKS ARE ALIGNED TO GNSS TIME                      
/* G:C1WC2W R:C1PC2P E:C1XC5X C:C2IC6I J:C1CC2S             
/* PCV:IGS20_2247 OL/AL:FES2004  NONE     YN ORB:CoN CLK:CoN
*  2023 05 26 23 15  0.00000000
PC06 -15291.737872  38240.070608   8295.566713   -186.925179
PC07  -2834.577555  33003.913036  26236.233030    -78.890604
PC08 -12808.492409  19960.178162 -34908.098949    475.887534
PC10   5305.830410  36389.801661  21378.108407    -68.992860
PC11  -7717.838435 -17940.316445  19984.575865    640.824336
PC12   5240.062456 -26872.321085   5410.015062    667.675993
PC13  -4205.806147  22006.678177 -35593.609000    283.290642
PC14 -18656.143597 -20698.640638    560.348137    317.447044
PC16 -17477.601423  37874.130040   5210.867421     64.954999
PC19  21917.896342  14953.086369   8724.718022   -914.877836
PC20  13736.074360  22937.560859  -8050.891857    543.120931
PC21   3539.362422 -17626.069652  21352.743389   -917.781861
PC22  17903.692436  -2010.662247  21322.478010   -469.628344
PC23 -26978.647689   7011.430481   1330.326767   -939.437187
PC24  -4801.392429 -15638.507226 -22616.803730     -8.418991
PC25 -23352.472499  -4914.682961 -14488.156007    134.632210
PC26  14138.554868 -16488.628217 -17515.090332   -125.963831
PC27 -10431.929450  25716.043785   2848.966510    146.061554
PC28 -17107.621587  13622.538770  17335.467320    108.229292
PC29  14200.513513   7995.244954 -22663.588438    125.727008
PC30   2713.137734  24419.517314 -13223.543943     -0.598288
PC32  -3415.293380  17643.171295 -21336.880205   -556.724777
PC33 -21970.809734 -14878.241152  -8593.922677   -886.452499
PC34  -3607.970121 -23751.956531  14198.960280    179.481800
PC35  16781.457696 -13569.932318 -17729.095946    619.817114
PC36  22738.269741   5976.507951  15055.846759   -418.544515
PC37 -15664.537820  15895.557202  16781.847607   -784.088118
PC38 -20944.849546  20840.958220 -30108.349665     81.006009
PC39 -18659.657067  37677.206666   -639.904688     -3.084244
PC40  -5552.748189  29395.002540  29807.996343    -24.379366
PC41 -18255.113587   1455.597669 -20996.740968   -935.095570
PC42 -12655.783801 -23035.661323   9375.696037   -674.934270
PC43 -13918.373554  -8997.298028  22439.362477     23.284692
PC44   9638.212732 -26027.976956  -3077.489831    118.971428
PC45  26871.856176  -7270.192904  -1793.012687   -102.603841
PC46   6426.704144  15071.528227  22588.428080    -56.965854
PE02  24651.328484  14393.530381   7803.333117     40.452725
PE03  15586.509199  18825.668661  16713.576333    -20.331930
PE04 -16902.149090   2128.211781 -24193.573707   -131.112751
PE05   5065.436818  29156.775852   -768.852396    -63.751150
PE07   8476.417490 -22089.754028  17789.946048    -48.060622
PE08  16832.706512  -1748.563786  24292.602979    -89.300580
PE09  -8416.793875  21982.189338 -17949.610332    -28.565562
PE10 -23869.586454  16874.608818   4644.326060   -536.654733
PE11 -19222.408252  21713.067729  -5904.208776   2042.927656
PE12 -24497.389846   9702.429053  13457.290910   -554.992881
PE13  19693.456359 -21501.548446   5131.734055    -19.214281
PE14 -14903.978769  -7661.445933  16862.817662    236.490068
PE15  24419.014232  -9496.594315 -13784.259450    -24.775879
PE18  19226.068365  14261.401700 -21561.232806    110.262464
PE19 -14467.907083 -21135.685118 -14822.445016  -2441.704867
PE21  -8556.502253 -18558.264673 -21414.307349   -531.414406
PE24 -14195.240931  11852.046188  23102.485695   -120.804495
PE25   8183.609658  18544.093070  21574.955187   -605.733146
PE26   2686.521941 -20562.529857  21120.010884    115.933039
PE27  13399.042441 -12279.116088 -23360.581019    -59.347748
PE30  27406.404041   1629.557190 -11061.409796   -205.267930
PE31 -27236.682056  -1159.338124  11538.491151   -524.601896
PE33 -14681.749668  -8028.006060  24411.743878   -443.938919
PE34  14826.148011   7875.832402 -24389.532905    -47.533697
PE36  -3483.858538  20759.516407 -20809.525236    -62.052273
PG01 -10446.434802  19852.484467 -14269.848185    182.470331
PG02 -21096.453984  15505.106390   4569.594905   -592.104679
PG03   -379.748789  15516.205755 -21702.234979   -291.119833
PG04   -781.446277  25928.332130  -5406.694159     51.814774
PG05  17296.712562  -7633.806689  18527.414244   -128.728080
PG06  19640.224108   -456.686862 -17862.445380    587.378484
PG07   4936.265682  15553.804480  21338.974997    168.305881
PG08  -7878.583309  19479.280938  15932.910244   -124.372761
PG09   7477.366568  25076.274583   4344.613484   -149.964451
PG10 -24024.070900 -11414.733704   2834.382724    -38.578178
PG11  23103.101339 -11776.311243  -5647.265967   -211.657306
PG12   4598.861296 -14632.661420 -21966.109683   -380.939823
PG13  13050.212429 -12468.375268  19235.885317    525.521421
PG14  22287.562864  13630.049172   5235.131122     70.227045
PG15   5313.375680 -20871.604654  14913.556430     43.173230
PG16 -20525.855795   2615.564737  16597.017892   -497.452995
PG17  12902.347224  15357.302885 -16930.518021    716.240491
PG18  -7293.287448 -13150.875109  21882.367491   -282.708580
PG19  14780.018355   6877.877162 -21252.720881    322.252010
PG20  23434.364468  -3730.899505  11767.899690    431.396217
PG21 -16217.908338  19792.819878  -4573.572781    153.569471
PG22 -15040.322240  -2894.588732 -21263.222213    487.929523
PG23 -16558.786396 -15782.530578  13630.845196     27.559042
PG24  12244.784083 -21444.122431  -9554.746214   -203.103403
PG25  -8733.053423 -17362.317153 -18533.063812    445.602592
PG26 -25803.810413  -3529.520462   5946.508108    240.221737
PG27 -13381.912780   8353.516382  21048.804955     29.143891
PG28 -18818.030542  -1097.975566 -18732.367294     80.576050
PG29  -3299.686122 -26225.487158   1998.357150   -600.826387
PG30  14896.495026   7754.316461  20738.258705   -514.875528
PG31 -23248.998653   8334.551492 -10525.127468   -216.911451
PG32 -14857.572295 -12336.894277 -18140.188189   -486.031275
PJ02 -27930.599582  21761.504510  27959.916938     -0.159504
PJ03 -32701.990026  26055.363473  10297.367589      5.013543
PJ04 -23210.594142  21882.928453 -22427.263787     94.809955
PR01 -16841.269247 -14097.382794 -12953.267402     58.250065
PR02 -11121.823857   2318.621575 -22795.276426    -22.790278
PR03    480.822548  17296.612542 -18669.079494     78.538131
PR04  11470.595405  22353.531415  -4349.899077    188.742511
PR05  16201.323534  15347.240321  12353.275059    113.168333
PR07  -1048.248564 -17856.550406  18250.445384     56.722198
PR08 -11626.831407 -22323.158374   4291.604781    -70.985893
PR09  23742.908996  -5398.670464  -7719.084256    122.361676
PR11  -7371.261595 -10144.191630 -22198.140474    -64.809500
PR12 -23207.530124  -3701.402895  -9907.908339     27.595640
PR13 -24444.166514   4225.977136   5926.753961    -35.474385
PR14 -10559.213479  10580.401188  20676.511688     24.695898
PR15   8626.827164  10105.301837  21796.465190     89.085907
PR16  23079.751501   3634.206904  10290.288266     14.963424
PR17 -11171.273594  22862.676596  -2047.070643    633.486210
PR18  -1565.211615  18853.884890 -17073.977901     83.508654
PR19   7972.891007   6842.701431 -23250.609901   -234.059147
PR20  15605.874159 -12996.274677 -15461.815119    -93.567304
PR21  10630.100594 -22899.775557   3546.800589    -10.523820
PR22   1297.626602 -18455.279275  17589.684899     80.432330
PR24 -15445.155824  13854.959988  14856.341838    173.775903
PR25  12232.922352 -22292.599167   1894.430100     61.584335
EOF
